O3B FM5                 
1 39188U 13031A   26074.09157039 -.00000020  00000+0  00000+0 0  9991
2 39188   0.0995  11.2024 0003286 333.8033  14.9812  5.00116494232334
O3B FM4                 
1 39189U 13031B   26072.41173487 -.00000022  00000+0  00000+0 0  9993
2 39189   0.0547 345.1246 0005098  15.5435 359.3289  5.00115278232249
O3B FM2                 
1 39190U 13031C   26073.87663637 -.00000020  00000+0  00000+0 0  9995
2 39190   0.0549 338.8631 0002826  11.4299   9.6981  5.00115986232395
O3B PFM                 
1 39191U 13031D   26065.09556941 -.00000026  00000+0  00000+0 0  9996
2 39191   0.0668   7.2787 0005147 352.3292   0.3862  5.00115906231517
O3B FM3                 
1 40079U 14038A   26074.15726844 -.00000019  00000+0  00000+0 0  9991
2 40079   0.0529 353.7505 0000656  63.7945 302.4581  5.00115598208330
O3B FM7                 
1 40080U 14038B   26072.30434378 -.00000022  00000+0  00000+0 0  9990
2 40080   0.0586 348.6070 0004384 352.5506  18.8225  5.00115635213082
O3B FM6                 
1 40081U 14038C   26074.13036311 -.00000019  00000+0  00000+0 0  9995
2 40081   0.0547 351.3156 0002640   0.9701   7.7068  5.00115707213127
O3B FM8                 
1 40082U 14038D   26074.18367462 -.00000019  00000+0  00000+0 0  9995
2 40082   0.0555 350.6080 0002647   5.3351   4.0513  5.00115993213247
O3B FM10                
1 40348U 14083A   26070.41282342 -.00000024  00000+0  00000+0 0  9991
2 40348   0.0429 348.2570 0002651   1.0660  10.6675  5.00115268204999
O3B FM11                
1 40349U 14083B   26074.02357238 -.00000020  00000+0  00000+0 0  9996
2 40349   0.0573   0.3012 0003088 341.5889  18.0955  5.00115575205206
O3B FM12                
1 40350U 14083C   26074.05065926 -.00000020  00000+0  00000+0 0  9991
2 40350   0.0566 359.5634 0002612 347.4659  12.9606  5.00115981205219
O3B FM9                 
1 40351U 14083D   26074.07749042 -.00000020  00000+0  00000+0 0  9992
2 40351   0.0584   0.4596 0002719 352.5981   6.9352  5.00115908205368
LEO 1 (LEO VANTAGE 1)   
1 43113U 18004C   26074.22997318  .00005574  00000+0  38725-3 0  9993
2 43113  99.2473 340.2690 0352472   7.9411 352.7170 14.67247755423706
O3B FM15                
1 43231U 18024A   26074.14425745 -.00000019  00000+0  00000+0 0  9998
2 43231   0.0491   1.4753 0002676 348.5914   9.9247  5.00115704146324
O3B FM16                
1 43232U 18024B   26074.19662649 -.00000019  00000+0  00000+0 0  9990
2 43232   0.0456   3.7624 0002802 343.7498  12.4776  5.00115906146244
O3B FM14                
1 43233U 18024C   26071.63880927 -.00000023  00000+0  00000+0 0  9993
2 43233   0.0439   2.7730 0002842 349.0319   8.1868  5.00115666146122
O3B FM13                
1 43234U 18024D   26072.10444450 -.00000022  00000+0  00000+0 0  9993
2 43234   0.0487 334.7219 0003796 336.3210  48.9207  5.00115630146258
